{"type": "FeatureCollection", "features": [ {"type": "Feature", "properties": {"norad_id": 34962, "name": "COSMOS 2251 DEB", "group": "cosmos-2251-debris", "lat": -70.12602972077285, "lon": 128.8812809837628, "alt_km": 730.7686502011602, "timestamp": "2025-12-19T04:59:48.702395+00:00", "meta": {"OBJECT_NAME": "COSMOS 2251 DEB", "OBJECT_ID": "1993-036AER", "EPOCH": "2025-12-18T21:03:24.717888", "MEAN_MOTION": 14.46534174, "ECCENTRICITY": 0.00188676, "INCLINATION": 74.0283, "RA_OF_ASC_NODE": 181.8991, "ARG_OF_PERICENTER": 294.3911, "MEAN_ANOMALY": 65.5278, "EPHEMERIS_TYPE": 0, "CLASSIFICATION_TYPE": "U", "NORAD_CAT_ID": 34962, "ELEMENT_SET_NO": 999, "REV_AT_EPOCH": 87667, "BSTAR": 0.00031694906, "MEAN_MOTION_DOT": 1.117e-05, "MEAN_MOTION_DDOT": 0}, "tle": {"line1": "1 34962U 93036AER 25352.87736942  .00001117  00000+0  31695-3 0  9994", "line2": "2 34962  74.0283 181.8991 0018867 294.3911  65.5278 14.46534174876672"}}, "geometry": {"type": "Point", "coordinates": [128.8812809837628, -70.12602972077285]}}, {"type": "Feature", "properties": {"norad_id": 34963, "name": "COSMOS 2251 DEB", "group": "cosmos-2251-debris", "lat": -66.76391783143285, "lon": -10.68106046725879, "alt_km": 714.3265670645442, "timestamp": "2025-12-19T04:59:48.702404+00:00", "meta": {"OBJECT_NAME": "COSMOS 2251 DEB", "OBJECT_ID": "1993-036AES", "EPOCH": "2025-12-18T09:28:38.471808", "MEAN_MOTION": 14.51136522, "ECCENTRICITY": 0.00423247, "INCLINATION": 74.1717, "RA_OF_ASC_NODE": 32.1929, "ARG_OF_PERICENTER": 227.6243, "MEAN_ANOMALY": 132.1333, "EPHEMERIS_TYPE": 0, "CLASSIFICATION_TYPE": "U", "NORAD_CAT_ID": 34963, "ELEMENT_SET_NO": 999, "REV_AT_EPOCH": 86883, "BSTAR": 0.001019062, "MEAN_MOTION_DOT": 4.064e-05, "MEAN_MOTION_DDOT": 0}, "tle": {"line1": "1 34963U 93036AES 25352.39488972  .00004064  00000+0  10191-2 0  9990", "line2": "2 34963  74.1717  32.1929 0042324 227.6243 132.1333 14.51136522868830"}}, "geometry": {"type": "Point", "coordinates": [-10.68106046725879, -66.76391783143285]}}, {"type": "Feature", "properties": {"norad_id": 34964, "name": "COSMOS 2251 DEB", "group": "cosmos-2251-debris", "lat": -30.786976839730947, "lon": 166.44352022111767, "alt_km": 750.4350845941326, "timestamp": "2025-12-19T04:59:48.702414+00:00", "meta": {"OBJECT_NAME": "COSMOS 2251 DEB", "OBJECT_ID": "1993-036AET", "EPOCH": "2025-12-18T07:25:04.519776", "MEAN_MOTION": 14.00628567, "ECCENTRICITY": 0.02123167, "INCLINATION": 73.9712, "RA_OF_ASC_NODE": 338.1457, "ARG_OF_PERICENTER": 195.4091, "MEAN_ANOMALY": 164.0515, "EPHEMERIS_TYPE": 0, "CLASSIFICATION_TYPE": "U", "NORAD_CAT_ID": 34964, "ELEMENT_SET_NO": 999, "REV_AT_EPOCH": 84556, "BSTAR": 0.00089791859, "MEAN_MOTION_DOT": 1.6e-05, "MEAN_MOTION_DDOT": 0}, "tle": {"line1": "1 34964U 93036AET 25352.30908009  .00001600  00000+0  89792-3 0  9997", "line2": "2 34964  73.9712 338.1457 0212316 195.4091 164.0515 14.00628567845561"}}, "geometry": {"type": "Point", "coordinates": [166.44352022111767, -30.786976839730947]}}, {"type": "Feature", "properties": {"norad_id": 34965, "name": "COSMOS 2251 DEB", "group": "cosmos-2251-debris", "lat": -37.877606014053924, "lon": 103.50672381764063, "alt_km": 731.8829119221446, "timestamp": "2025-12-19T04:59:48.702425+00:00", "meta": {"OBJECT_NAME": "COSMOS 2251 DEB", "OBJECT_ID": "1993-036AEU", "EPOCH": "2025-12-17T15:03:41.961600", "MEAN_MOTION": 14.48719577, "ECCENTRICITY": 0.00264531, "INCLINATION": 74.0515, "RA_OF_ASC_NODE": 119.3168, "ARG_OF_PERICENTER": 245.8821, "MEAN_ANOMALY": 113.9572, "EPHEMERIS_TYPE": 0, "CLASSIFICATION_TYPE": "U", "NORAD_CAT_ID": 34965, "ELEMENT_SET_NO": 999, "REV_AT_EPOCH": 87184, "BSTAR": 0.00029308961, "MEAN_MOTION_DOT": 1.082e-05, "MEAN_MOTION_DDOT": 0}, "tle": {"line1": "1 34965U 93036AEU 25351.62756900  .00001082  00000+0  29309-3 0  9995", "line2": "2 34965  74.0515 119.3168 0026453 245.8821 113.9572 14.48719577871849"}}, "geometry": {"type": "Point", "coordinates": [103.50672381764063, -37.877606014053924]}}, {"type": "Feature", "properties": {"norad_id": 34967, "name": "COSMOS 2251 DEB", "group": "cosmos-2251-debris", "lat": 48.84450458357254, "lon": 42.623225944926084, "alt_km": 744.9538842508291, "timestamp": "2025-12-19T04:59:48.702435+00:00", "meta": {"OBJECT_NAME": "COSMOS 2251 DEB", "OBJECT_ID": "1993-036AEW", "EPOCH": "2025-12-13T00:27:20.673792", "MEAN_MOTION": 14.44269018, "ECCENTRICITY": 0.00380101, "INCLINATION": 73.9933, "RA_OF_ASC_NODE": 253.3374, "ARG_OF_PERICENTER": 39.5345, "MEAN_ANOMALY": 320.8573, "EPHEMERIS_TYPE": 0, "CLASSIFICATION_TYPE": "U", "NORAD_CAT_ID": 34967, "ELEMENT_SET_NO": 999, "REV_AT_EPOCH": 64961, "BSTAR": 0.0011451852, "MEAN_MOTION_DOT": 3.946e-05, "MEAN_MOTION_DDOT": 0}, "tle": {"line1": "1 34967U 93036AEW 25347.01898928  .00003946  00000+0  11452-2 0  9992", "line2": "2 34967  73.9933 253.3374 0038010  39.5345 320.8573 14.44269018649616"}}, "geometry": {"type": "Point", "coordinates": [42.623225944926084, 48.84450458357254]}}, {"type": "Feature", "properties": {"norad_id": 34968, "name": "COSMOS 2251 DEB", "group": "cosmos-2251-debris", "lat": -24.135853563120023, "lon": -132.62834875457494, "alt_km": 641.890243232654, "timestamp": "2025-12-19T04:59:48.702445+00:00", "meta": {"OBJECT_NAME": "COSMOS 2251 DEB", "OBJECT_ID": "1993-036AEX", "EPOCH": "2025-12-18T15:56:55.317696", "MEAN_MOTION": 14.59416271, "ECCENTRICITY": 0.00869148, "INCLINATION": 74.0386, "RA_OF_ASC_NODE": 235.7756, "ARG_OF_PERICENTER": 354.6582, "MEAN_ANOMALY": 5.3646, "EPHEMERIS_TYPE": 0, "CLASSIFICATION_TYPE": "U", "NORAD_CAT_ID": 34968, "ELEMENT_SET_NO": 999, "REV_AT_EPOCH": 88564, "BSTAR": 0.00010693507, "MEAN_MOTION_DOT": 5.01e-06, "MEAN_MOTION_DDOT": 0}, "tle": {"line1": "1 34968U 93036AEX 25352.66452914  .00000501  00000+0  10694-3 0  9993", "line2": "2 34968  74.0386 235.7756 0086914 354.6582   5.3646 14.59416271885641"}}, "geometry": {"type": "Point", "coordinates": [-132.62834875457494, -24.135853563120023]}}, {"type": "Feature", "properties": {"norad_id": 34969, "name": "COSMOS 2251 DEB", "group": "cosmos-2251-debris", "lat": 24.470841911803277, "lon": -176.17053337070814, "alt_km": 731.5368371109398, "timestamp": "2025-12-19T04:59:48.702455+00:00", "meta": {"OBJECT_NAME": "COSMOS 2251 DEB", "OBJECT_ID": "1993-036AEY", "EPOCH": "2025-12-15T18:08:26.126880", "MEAN_MOTION": 14.32260529, "ECCENTRICITY": 0.00734759, "INCLINATION": 74.0142, "RA_OF_ASC_NODE": 17.6317, "ARG_OF_PERICENTER": 150.1137, "MEAN_ANOMALY": 210.4241, "EPHEMERIS_TYPE": 0, "CLASSIFICATION_TYPE": "U", "NORAD_CAT_ID": 34969, "ELEMENT_SET_NO": 999, "REV_AT_EPOCH": 65180, "BSTAR": 0.00024953546, "MEAN_MOTION_DOT": 6.68e-06, "MEAN_MOTION_DDOT": 0}, "tle": {"line1": "1 34969U 93036AEY 25349.75585795  .00000668  00000+0  24954-3 0  9992", "line2": "2 34969  74.0142  17.6317 0073475 150.1137 210.4241 14.32260529651808"}}, "geometry": {"type": "Point", "coordinates": [-176.17053337070814, 24.470841911803277]}}, {"type": "Feature", "properties": {"norad_id": 34971, "name": "COSMOS 2251 DEB", "group": "cosmos-2251-debris", "lat": -47.62203152866647, "lon": -105.64688499338143, "alt_km": 762.5603129137198, "timestamp": "2025-12-19T04:59:48.702492+00:00", "meta": {"OBJECT_NAME": "COSMOS 2251 DEB", "OBJECT_ID": "1993-036AFA", "EPOCH": "2025-12-18T11:38:13.277760", "MEAN_MOTION": 14.55642375, "ECCENTRICITY": 0.00693978, "INCLINATION": 73.9787, "RA_OF_ASC_NODE": 274.0839, "ARG_OF_PERICENTER": 138.3039, "MEAN_ANOMALY": 342.538, "EPHEMERIS_TYPE": 0, "CLASSIFICATION_TYPE": "U", "NORAD_CAT_ID": 34971, "ELEMENT_SET_NO": 999, "REV_AT_EPOCH": 66256, "BSTAR": 0.00012982435, "MEAN_MOTION_DOT": 5.55e-06, "MEAN_MOTION_DDOT": 0}, "tle": {"line1": "1 34971U 93036AFA 25352.48487590  .00000555  00000+0  12982-3 0  9996", "line2": "2 34971  73.9787 274.0839 0069397 138.3039 342.5380 14.55642375662563"}}, "geometry": {"type": "Point", "coordinates": [-105.64688499338143, -47.62203152866647]}}, {"type": "Feature", "properties": {"norad_id": 34972, "name": "COSMOS 2251 DEB", "group": "cosmos-2251-debris", "lat": -58.3606660961969, "lon": -115.00312762723784, "alt_km": 642.4292503217985, "timestamp": "2025-12-19T04:59:48.702502+00:00", "meta": {"OBJECT_NAME": "COSMOS 2251 DEB", "OBJECT_ID": "1993-036AFB", "EPOCH": "2025-12-18T05:23:24.742752", "MEAN_MOTION": 14.72969956, "ECCENTRICITY": 0.00332471, "INCLINATION": 73.9903, "RA_OF_ASC_NODE": 39.1431, "ARG_OF_PERICENTER": 197.1269, "MEAN_ANOMALY": 231.2337, "EPHEMERIS_TYPE": 0, "CLASSIFICATION_TYPE": "U", "NORAD_CAT_ID": 34972, "ELEMENT_SET_NO": 999, "REV_AT_EPOCH": 87731, "BSTAR": 0.0010976522, "MEAN_MOTION_DOT": 7.082e-05, "MEAN_MOTION_DDOT": 0}, "tle": {"line1": "1 34972U 93036AFB 25352.22459193  .00007082  00000+0  10977-2 0  9990", "line2": "2 34972  73.9903  39.1431 0033247 197.1269 231.2337 14.72969956877318"}}, "geometry": {"type": "Point", "coordinates": [-115.00312762723784, -58.3606660961969]}}, {"type": "Feature", "properties": {"norad_id": 34976, "name": "COSMOS 2251 DEB", "group": "cosmos-2251-debris", "lat": 58.28062470442284, "lon": -38.86219568202043, "alt_km": 629.7269145107039, "timestamp": "2025-12-19T04:59:48.702513+00:00", "meta": {"OBJECT_NAME": "COSMOS 2251 DEB", "OBJECT_ID": "1993-036AFF", "EPOCH": "2025-12-18T02:46:07.121280", "MEAN_MOTION": 14.76682106, "ECCENTRICITY": 0.00478221, "INCLINATION": 74.0573, "RA_OF_ASC_NODE": 295.7277, "ARG_OF_PERICENTER": 341.3704, "MEAN_ANOMALY": 33.1304, "EPHEMERIS_TYPE": 0, "CLASSIFICATION_TYPE": "U", "NORAD_CAT_ID": 34976, "ELEMENT_SET_NO": 999, "REV_AT_EPOCH": 88353, "BSTAR": 0.0012548314, "MEAN_MOTION_DOT": 8.924e-05, "MEAN_MOTION_DDOT": 0}, "tle": {"line1": "1 34976U 93036AFF 25352.11536020  .00008924  00000+0  12548-2 0  9999", "line2": "2 34976  74.0573 295.7277 0047822 341.3704  33.1304 14.76682106883533"}}, "geometry": {"type": "Point", "coordinates": [-38.86219568202043, 58.28062470442284]}}]}